IRIDIUM 150             
1 43257U 18030J   25302.49341970  .00000402  00000+0  13653-3 0  9998
2 43257  86.4009  26.8966 0001910  94.4749 265.6665 14.34218257397096
IRIDIUM 143             
1 43258U 18030K   25302.47439113  .00000325  00000+0  10916-3 0  9997
2 43258  86.4014  26.9882 0001783  96.2931 263.8468 14.34218385397028
IRIDIUM 161             
1 43478U 18047C   25302.43598698  .00000475  00000+0  13530-3 0  9990
2 43478  86.4549 184.8734 0002283  84.0677 276.0784 14.43276275391857
IRIDIUM 152             
1 43479U 18047D   25302.37734088  .00000289  00000+0  96171-4 0  9995
2 43479  86.4023 184.7585 0002261  82.3823 277.7630 14.34217966389406
IRIDIUM 147             
1 43480U 18047E   25302.17437806  .00000235  00000+0  76893-4 0  9993
2 43480  86.4026 184.8444 0002141  86.0188 274.1253 14.34218512389374
IRIDIUM 110             
1 43481U 18047F   25302.39003104  .00000382  00000+0  12934-3 0  9996
2 43481  86.4027 184.8400 0002593  85.4790 274.6702 14.34217898389393
IRIDIUM 162             
1 43482U 18047G   25302.42967103  .00000480  00000+0  13665-3 0  9990
2 43482  86.4548 184.7700 0002315  77.1947 282.9512 14.43280803391848
IRIDIUM 160             
1 43569U 18061A   25302.33586242  .00000156  00000+0  48766-4 0  9994
2 43569  86.3990 153.3008 0002272  91.1911 268.9545 14.34217977380284
